STARLINK-31561          
1 59352U 24060E   26202.11677168 -.00000482  00000+0 -79925-5 0  9997
2 59352  43.0033 225.9144 0001504 278.7368  81.3313 15.27575283130476
STARLINK-31413          
1 59353U 24060F   26201.47705066  .00001436  00000+0  61736-4 0  9993
2 59353  43.0037 229.7197 0003023 286.2332  73.8187 15.27571398130371
STARLINK-31422          
1 59354U 24060G   26201.39381223  .00000145  00000+0  14779-4 0  9991
2 59354  43.0020 230.8064 0001153 271.3906  88.6813 15.27578061130356
STARLINK-31416          
1 59355U 24060H   26202.08735873  .00000450  00000+0  25890-4 0  9998
2 59355  43.0008 226.5512 0001275 277.5623  82.5083 15.27578183130461
STARLINK-31552          
1 59356U 24060J   26201.38996031 -.00000150  00000+0  40683-5 0  9992
2 59356  43.0009 230.7923 0001054 276.8636  83.2096 15.27573687130351
STARLINK-31557          
1 59357U 24060K   26202.03772935  .00002015  00000+0  82729-4 0  9998
2 59357  43.0009 222.6820 0001162 280.8777  79.1944 15.27573174130503
STARLINK-31559          
1 59358U 24060L   26202.13861231  .00000326  00000+0  21389-4 0  9996
2 59358  43.0019 226.0788 0001927 274.8771  85.1861 15.27577248130479
STARLINK-31501          
1 59359U 24060M   26202.03611401 -.00000245  00000+0  60403-6 0  9991
2 59359  42.9995 227.0292 0001073 296.4546  63.6196 15.27576408130451
STARLINK-31549          
1 59360U 24060N   26201.80011512  .00003377  00000+0  13218-3 0  9991
2 59360  43.0034 227.8392 0001925 270.5321  89.5310 15.27581018130423
STARLINK-31560          
1 59361U 24060P   26201.44120682  .00000806  00000+0  38803-4 0  9993
2 59361  42.9997 230.2985 0001253 284.2989  75.7724 15.27577561130369
STARLINK-31571          
1 59362U 24060Q   26202.09764021  .00000016  00000+0  10100-4 0  9990
2 59362  43.0000 226.6259 0001247 276.6254  83.4455 15.27576264130460
STARLINK-31553          
1 59363U 24060R   26202.08704240 -.00000213  00000+0  17693-5 0  9992
2 59363  43.0003 219.6141 0001018 259.5847 100.4890 15.27575875130549
STARLINK-31547          
1 59364U 24060S   26202.07453335 -.00000905  00000+0 -23377-4 0  9992
2 59364  42.9993 215.2051 0001045 280.0836  79.9898 15.27579376130598
STARLINK-31537          
1 59365U 24060T   26202.10535083 -.00000159  00000+0  37310-5 0  9991
2 59365  42.9992 226.6819 0001301 279.2114  80.8591 15.27578420130466
STARLINK-31451          
1 59366U 24060U   26202.05781020 -.00000568  00000+0 -11095-4 0  9996
2 59366  43.0028 226.3322 0001661 279.8923  80.1741 15.27574600130464
STARLINK-31428          
1 59367U 24060V   26202.06937225  .00000070  00000+0  12063-4 0  9990
2 59367  43.0018 226.4188 0001655 270.3056  89.7606 15.27577030130466
STARLINK-31419          
1 59368U 24060W   26202.07579649  .00000487  00000+0  27221-4 0  9998
2 59368  43.0010 226.4640 0001323 273.7476  86.3224 15.27576928130461
STARLINK-31583          
1 59369U 24060X   26202.10280606  .00000649  00000+0  33119-4 0  9998
2 59369  43.0017 215.4231 0001780 277.4608  82.6041 15.27579490130595
STARLINK-31461          
1 59370U 24060Y   26202.11436562  .00000463  00000+0  26361-4 0  9990
2 59370  43.0000 215.5063 0001461 271.1820  88.8864 15.27579428130532
RESURS-P 4              
1 59371U 24061A   26202.28806983  .00002099  00000+0  69731-4 0  9993
2 59371  97.2761 149.5995 0003188  80.3438 279.8164 15.32303587128989
STARLINK-31641          
1 59374U 24062A   26201.72510915  .00001084  00000+0  43217-4 0  9996
2 59374  53.1614 358.1711 0001238  94.7905 265.3239 15.34394263130020
STARLINK-31430          
1 59375U 24062B   26201.69994609  .00001603  00000+0  58578-4 0  9992
2 59375  53.1612 358.7227 0000779  85.0949 275.0143 15.34384770130021
STARLINK-31695          
1 59376U 24062C   26201.69517157  .00000791  00000+0  34545-4 0  9997
2 59376  53.1612 356.5632 0001221  82.8477 277.2665 15.34399404130014
STARLINK-31716          
1 59377U 24062D   26201.58727035  .00000250  00000+0  20548-4 0  9992
2 59377  53.1610 309.7207 0001075  86.8219 273.2904 15.30206889130658
STARLINK-31710          
1 59378U 24062E   26202.13640364 -.00000394  00000+0 -52071-6 0  9993
2 59378  53.1609 354.3353 0001025  96.7471 263.3648 15.34390053130083
STARLINK-31698          
1 59379U 24062F   26202.12378115  .00001138  00000+0  44834-4 0  9996
2 59379  53.1619 354.2710 0001313  79.4930 280.6221 15.34393463130086
STARLINK-31680          
1 59380U 24062G   26201.73142281  .00004478  00000+0  14353-3 0  9999
2 59380  53.1618 358.2036 0001062  88.0180 272.0944 15.34413579129992
STARLINK-31713          
1 59381U 24062H   26201.72300472  .00000090  00000+0  13791-4 0  9999
2 59381  53.1641 358.1563 0001365  98.2137 261.9020 15.34395249129999
STARLINK-31705          
1 59382U 24062J   26202.14272159  .00004438  00000+0  14253-3 0  9990
2 59382  53.1613 354.3737 0001295  85.1360 274.9791 15.34369936130080
STARLINK-31715          
1 59384U 24062L   26201.77293506  .00002147  00000+0  74642-4 0  9993
2 59384  53.1614 356.3349 0001044  55.3640 304.7461 15.34404432130061
