OBJECT_NAME,OBJECT_ID,EPOCH,MEAN_MOTION,ECCENTRICITY,INCLINATION,RA_OF_ASC_NODE,ARG_OF_PERICENTER,MEAN_ANOMALY,EPHEMERIS_TYPE,CLASSIFICATION_TYPE,NORAD_CAT_ID,ELEMENT_SET_NO,REV_AT_EPOCH,BSTAR,MEAN_MOTION_DOT,MEAN_MOTION_DDOT
STARLINK-31561,2024-060E,2026-07-21T02:48:09.073152,15.27575283,.00015046,43.0033,225.9144,278.7368,81.3313,0,U,59352,999,13047,-.799247E-5,-.482E-5,0
STARLINK-31413,2024-060F,2026-07-20T11:26:57.177024,15.27571398,.00030237,43.0037,229.7197,286.2332,73.8187,0,U,59353,999,13037,.61736489E-4,.1436E-4,0
STARLINK-31422,2024-060G,2026-07-20T09:27:05.376672,15.27578061,.00011531,43.0020,230.8064,271.3906,88.6813,0,U,59354,999,13035,.14778978E-4,.145E-5,0
STARLINK-31416,2024-060H,2026-07-21T02:05:47.794272,15.27578183,.00012759,43.0008,226.5512,277.5623,82.5083,0,U,59355,999,13046,.25889566E-4,.45E-5,0
STARLINK-31552,2024-060J,2026-07-20T09:21:32.570784,15.27573687,.00010543,43.0009,230.7923,276.8636,83.2096,0,U,59356,999,13035,.4068339E-5,-.15E-5,0
STARLINK-31557,2024-060K,2026-07-21T00:54:19.815840,15.27573174,.00011623,43.0009,222.6820,280.8777,79.1944,0,U,59357,999,13050,.82728679E-4,.2015E-4,0
STARLINK-31559,2024-060L,2026-07-21T03:19:36.103584,15.27577248,.00019271,43.0019,226.0788,274.8771,85.1861,0,U,59358,999,13047,.21388742E-4,.326E-5,0
STARLINK-31501,2024-060M,2026-07-21T00:52:00.250464,15.27576408,.00010737,42.9995,227.0292,296.4546,63.6196,0,U,59359,999,13045,.604026E-6,-.245E-5,0
STARLINK-31549,2024-060N,2026-07-20T19:12:09.946368,15.27581018,.00019257,43.0034,227.8392,270.5321,89.5310,0,U,59360,999,13042,.13218166E-3,.3377E-4,0
STARLINK-31560,2024-060P,2026-07-20T10:35:20.269248,15.27577561,.00012538,42.9997,230.2985,284.2989,75.7724,0,U,59361,999,13036,.38802727E-4,.806E-5,0
STARLINK-31571,2024-060Q,2026-07-21T02:20:36.114144,15.27576264,.00012473,43.0000,226.6259,276.6254,83.4455,0,U,59362,999,13046,.10099853E-4,.16E-6,0
STARLINK-31553,2024-060R,2026-07-21T02:05:20.463360,15.27575875,.0001018,43.0003,219.6141,259.5847,100.4890,0,U,59363,999,13054,.1769344E-5,-.213E-5,0
STARLINK-31547,2024-060S,2026-07-21T01:47:19.681440,15.27579376,.00010453,42.9993,215.2051,280.0836,79.9898,0,U,59364,999,13059,-.23377106E-4,-.905E-5,0
STARLINK-31537,2024-060T,2026-07-21T02:31:42.311712,15.27578420,.00013016,42.9992,226.6819,279.2114,80.8591,0,U,59365,999,13046,.3730971E-5,-.159E-5,0
STARLINK-31451,2024-060U,2026-07-21T01:23:14.801280,15.27574600,.00016619,43.0028,226.3322,279.8923,80.1741,0,U,59366,999,13046,-.11095081E-4,-.568E-5,0
STARLINK-31428,2024-060V,2026-07-21T01:39:53.762400,15.27577030,.00016559,43.0018,226.4188,270.3056,89.7606,0,U,59367,999,13046,.12062622E-4,.7E-6,0
STARLINK-31419,2024-060W,2026-07-21T01:49:08.816736,15.27576928,.00013238,43.0010,226.4640,273.7476,86.3224,0,U,59368,999,13046,.27220908E-4,.487E-5,0
STARLINK-31583,2024-060X,2026-07-21T02:28:02.443584,15.27579490,.00017802,43.0017,215.4231,277.4608,82.6041,0,U,59369,999,13059,.33119446E-4,.649E-5,0
STARLINK-31461,2024-060Y,2026-07-21T02:44:41.189568,15.27579428,.00014619,43.0000,215.5063,271.1820,88.8864,0,U,59370,999,13053,.26360823E-4,.463E-5,0
RESURS-P 4,2024-061A,2026-07-21T06:54:49.233312,15.32303587,.00031889,97.2761,149.5995,80.3438,279.8164,0,U,59371,999,12898,.69730693E-4,.2099E-4,0
STARLINK-31641,2024-062A,2026-07-20T17:24:09.430560,15.34394263,.00012381,53.1614,358.1711,94.7905,265.3239,0,U,59374,999,13002,.43217132E-4,.1084E-4,0
STARLINK-31430,2024-062B,2026-07-20T16:47:55.342176,15.34384770,.00007797,53.1612,358.7227,85.0949,275.0143,0,U,59375,999,13002,.5857787E-4,.1603E-4,0
STARLINK-31695,2024-062C,2026-07-20T16:41:02.823648,15.34399404,.00012214,53.1612,356.5632,82.8477,277.2665,0,U,59376,999,13001,.34545307E-4,.791E-5,0
STARLINK-31716,2024-062D,2026-07-20T14:05:40.158240,15.30206889,.0001075,53.1610,309.7207,86.8219,273.2904,0,U,59377,999,13065,.20548E-4,.25E-5,0
STARLINK-31710,2024-062E,2026-07-21T03:16:25.274496,15.34390053,.00010253,53.1609,354.3353,96.7471,263.3648,0,U,59378,999,13008,-.520706E-6,-.394E-5,0
STARLINK-31698,2024-062F,2026-07-21T02:58:14.691360,15.34393463,.00013133,53.1619,354.2710,79.4930,280.6221,0,U,59379,999,13008,.44834256E-4,.1138E-4,0
STARLINK-31680,2024-062G,2026-07-20T17:33:14.930784,15.34413579,.00010623,53.1618,358.2036,88.0180,272.0944,0,U,59380,999,12999,.14353381E-3,.4478E-4,0
STARLINK-31713,2024-062H,2026-07-20T17:21:07.607808,15.34395249,.00013653,53.1641,358.1563,98.2137,261.9020,0,U,59381,999,12999,.1379062E-4,.9E-6,0
STARLINK-31705,2024-062J,2026-07-21T03:25:31.145376,15.34369936,.00012951,53.1613,354.3737,85.1360,274.9791,0,U,59382,999,13008,.14252881E-3,.4438E-4,0
STARLINK-31715,2024-062L,2026-07-20T18:33:01.589184,15.34404432,.00010446,53.1614,356.3349,55.3640,304.7461,0,U,59384,999,13006,.74641707E-4,.2147E-4,0
